{
  "norad_id": 66638,
  "name": "STARLINK-35972",
  "history": [
    {
      "epoch": "2026-03-28T15:14:12.120000",
      "apogee_km": 476.094205357379,
      "perigee_km": 474.24792416473156,
      "latitude_deg": -38.22181690574255,
      "longitude_deg": -175.253200000152,
      "semi_major_axis_km": 6853.308064761055,
      "eccentricity": 0.0001347,
      "inclination_deg": 53.1606,
      "raan_deg": 52.1871,
      "arg_perigee_deg": 93.7818,
      "mean_anomaly_deg": 266.3337,
      "mean_motion_rev_day": 15.30214738
    }
  ]
}